[{"OBJECT_NAME":"STARLINK-5175","OBJECT_ID":"2022-136AE","EPOCH":"2026-03-09T23:20:47.785920","MEAN_MOTION":15.08842203,"ECCENTRICITY":0.00013466,"INCLINATION":53.2192,"RA_OF_ASC_NODE":333.079,"ARG_OF_PERICENTER":88.7025,"MEAN_ANOMALY":271.4122,"EPHEMERIS_TYPE":0,"CLASSIFICATION_TYPE":"U","NORAD_CAT_ID":54079,"ELEMENT_SET_NO":999,"REV_AT_EPOCH":18702,"BSTAR":-3.1000387e-5,"MEAN_MOTION_DOT":-7.81e-6,"MEAN_MOTION_DDOT":0},{"OBJECT_NAME":"PSLV DEB","OBJECT_ID":"2001-049AH","EPOCH":"2026-03-09T23:39:21.767904","MEAN_MOTION":14.98984537,"ECCENTRICITY":0.00513683,"INCLINATION":98.1237,"RA_OF_ASC_NODE":87.2704,"ARG_OF_PERICENTER":48.4953,"MEAN_ANOMALY":9.0267,"EPHEMERIS_TYPE":0,"CLASSIFICATION_TYPE":"U","NORAD_CAT_ID":27089,"ELEMENT_SET_NO":999,"REV_AT_EPOCH":31452,"BSTAR":0.000212521,"MEAN_MOTION_DOT":2.577e-5,"MEAN_MOTION_DDOT":0}]
